ONEWEB-0235             
1 48771U 21045E   26025.21657478 -.00000207  00000+0 -58440-3 0  9998
2 48771  87.9004 287.7247 0001132  69.4812 290.6440 13.15549393225581
ONEWEB-0242             
1 48772U 21045F   26025.43840935 -.00000172  00000+0 -49010-3 0  9999
2 48772  87.9008 287.6759 0001504  69.8488 290.2804 13.15548886225653
ONEWEB-0241             
1 48773U 21045G   26025.42573082 -.00000186  00000+0 -52772-3 0  9999
2 48773  87.8996 287.7120 0001192  83.3487 276.7779 13.15549216225563
ONEWEB-0243             
1 48774U 21045H   26025.45742051  .00000013  00000+0  15862-5 0  9995
2 48774  87.8998 287.7159 0001337  63.2045 296.9222 13.15547824225599
ONEWEB-0222             
1 48775U 21045J   26025.44078245 -.00000044  00000+0 -15189-3 0  9998
2 48775  87.9008 287.6756 0001412  77.1491 282.9797 13.15547843225636
ONEWEB-0244             
1 48776U 21045K   26025.23875920 -.00000010  00000+0 -59731-4 0  9996
2 48776  87.9008 287.7053 0001444  72.6625 287.4663 13.15548588226171
ONEWEB-0247             
1 48777U 21045L   26025.46375985  .00000134  00000+0  32240-3 0  9998
2 48777  87.8994 287.7100 0001082  44.7834 315.3383 13.15548615225640
ONEWEB-0245             
1 48778U 21045M   26025.15478155 -.00000106  00000+0 -31543-3 0  9994
2 48778  87.9003 287.7387 0001427  81.6148 278.5144 13.15549239225571
